STARLINK-2358           
1 47898U 21021AQ  26068.80973759 -.00001931  00000+0 -53123-4 0  9995
2 47898  53.1616 267.5593 0000962  68.7622 291.3482 15.30190168276216
BANDWAGON-2 OBJECT D    
1 62380U 24247D   26068.52261193  .00011259  00000+0  40119-3 0  9994
2 62380  44.9954 115.6710 0003488 351.1453   8.9368 15.29076102 67732
